[{"OBJECT_NAME":"STARLINK-5283","OBJECT_ID":"2023-014F","EPOCH":"2026-03-09T09:18:36.425376","MEAN_MOTION":14.98325734,"ECCENTRICITY":0.0003143,"INCLINATION":69.9998,"RA_OF_ASC_NODE":65.0837,"ARG_OF_PERICENTER":270.7357,"MEAN_ANOMALY":89.3442,"EPHEMERIS_TYPE":0,"CLASSIFICATION_TYPE":"U","NORAD_CAT_ID":55396,"ELEMENT_SET_NO":999,"REV_AT_EPOCH":17201,"BSTAR":-3.1099883e-5,"MEAN_MOTION_DOT":-4.64e-6,"MEAN_MOTION_DDOT":0},{"OBJECT_NAME":"PE2_FLT2  (TYVAK-0262)","OBJECT_ID":"2024-043G","EPOCH":"2026-03-09T22:11:35.814912","MEAN_MOTION":14.96566721,"ECCENTRICITY":0.00068512,"INCLINATION":97.8241,"RA_OF_ASC_NODE":199.4452,"ARG_OF_PERICENTER":28.1235,"MEAN_ANOMALY":332.0355,"EPHEMERIS_TYPE":0,"CLASSIFICATION_TYPE":"U","NORAD_CAT_ID":59104,"ELEMENT_SET_NO":999,"REV_AT_EPOCH":10980,"BSTAR":0.00036572059,"MEAN_MOTION_DOT":4.105e-5,"MEAN_MOTION_DDOT":0}]
